TIANMU-1 07             
1 57399U 23101A   26065.57454230  .00008352  00000+0  29795-3 0  9991
2 57399  97.2728 118.5929 0004609 142.4105 217.7458 15.29118809145964
STARLINK-35793          
1 67179U 25303S   26068.08622385  .00032967  00000+0  12006-2 0  9996
2 67179  43.0009 314.0538 0001815 262.6995  97.3650 15.27621373 12646
